STARLINK-31168          
1 58798U 24012M   26068.34540138 -.00002191  00000+0 -70127-4 0  9991
2 58798  43.0023 167.1626 0001104 241.3310 118.7430 15.27572558121184
NUSAT-50 (NANCY ROMAN)  
1 60493U 24149AB  26068.80227738  .00012094  00000+0  42252-3 0  9994
2 60493  97.3817 150.7693 0002523 238.0469 122.0527 15.29713355 86930
